{
  "type": "FeatureCollection",
  "features": [
    {
      "type": "Feature",
      "properties": {
        "norad_id": 34366,
        "name": "IRIDIUM 33 DEB",
        "group": "iridium-33-debris",
        "lat": -59.076931668925944,
        "lon": -131.08456569947737,
        "alt_km": 732.765360581544,
        "timestamp": "2025-12-27T15:27:11.579248+00:00",
        "meta_object_name": "IRIDIUM 33 DEB",
        "meta_object_id": "1997-051FJ",
        "meta_epoch": "2025-12-27T04:46:07.017312",
        "meta_mean_motion": 14.54168499,
        "meta_eccentricity": 0.00230305,
        "meta_inclination": 86.3682,
        "meta_ra_of_asc_node": 43.0228,
        "meta_arg_of_pericenter": 94.9118,
        "meta_mean_anomaly": 335.0579,
        "meta_ephemeris_type": 0,
        "meta_classification_type": "U",
        "meta_norad_cat_id": 34366,
        "meta_element_set_no": 999,
        "meta_rev_at_epoch": 88392,
        "meta_bstar": 0.0010580531,
        "meta_mean_motion_dot": 4.511e-05,
        "meta_mean_motion_ddot": 0,
        "tle_line1": "1 34366U 97051FJ  25361.19869233  .00004511  00000+0  10581-2 0  9999",
        "tle_line2": "2 34366  86.3682  43.0228 0023030  94.9118 335.0579 14.54168499883929"
      },
      "geometry": {
        "type": "Point",
        "coordinates": [
          -131.08456569947737,
          -59.076931668925944
        ]
      }
    },
    {
      "type": "Feature",
      "properties": {
        "norad_id": 34375,
        "name": "IRIDIUM 33 DEB",
        "group": "iridium-33-debris",
        "lat": 18.398782960162972,
        "lon": 177.88311564264336,
        "alt_km": 796.2041570426918,
        "timestamp": "2025-12-27T15:27:11.579259+00:00",
        "meta_object_name": "IRIDIUM 33 DEB",
        "meta_object_id": "1997-051FT",
        "meta_epoch": "2025-12-26T23:01:44.485824",
        "meta_mean_motion": 14.1801844,
        "meta_eccentricity": 0.0103676,
        "meta_inclination": 86.4324,
        "meta_ra_of_asc_node": 176.9699,
        "meta_arg_of_pericenter": 82.2682,
        "meta_mean_anomaly": 46.0207,
        "meta_ephemeris_type": 0,
        "meta_classification_type": "U",
        "meta_norad_cat_id": 34375,
        "meta_element_set_no": 999,
        "meta_rev_at_epoch": 86913,
        "meta_bstar": 0.00046621,
        "meta_mean_motion_dot": 1.026e-05,
        "meta_mean_motion_ddot": 0,
        "tle_line1": "1 34375U 97051FT  25360.95954266  .00001026  00000+0  46621-3 0  9996",
        "tle_line2": "2 34375  86.4324 176.9699 0103676  82.2682  46.0207 14.18018440869136"
      },
      "geometry": {
        "type": "Point",
        "coordinates": [
          177.88311564264336,
          18.398782960162972
        ]
      }
    },
    {
      "type": "Feature",
      "properties": {
        "norad_id": 34376,
        "name": "IRIDIUM 33 DEB",
        "group": "iridium-33-debris",
        "lat": -83.8051305683855,
        "lon": -143.55035338491413,
        "alt_km": 708.6307615251599,
        "timestamp": "2025-12-27T15:27:11.579269+00:00",
        "meta_object_name": "IRIDIUM 33 DEB",
        "meta_object_id": "1997-051FU",
        "meta_epoch": "2025-12-26T23:28:16.470624",
        "meta_mean_motion": 14.62769588,
        "meta_eccentricity": 0.002868,
        "meta_inclination": 86.2986,
        "meta_ra_of_asc_node": 0.1373,
        "meta_arg_of_pericenter": 120.2874,
        "meta_mean_anomaly": 240.1181,
        "meta_ephemeris_type": 0,
        "meta_classification_type": "U",
        "meta_norad_cat_id": 34376,
        "meta_element_set_no": 999,
        "meta_rev_at_epoch": 88215,
        "meta_bstar": 0.0018717,
        "meta_mean_motion_dot": 9.625e-05,
        "meta_mean_motion_ddot": 0,
        "tle_line1": "1 34376U 97051FU  25360.97796841  .00009625  00000+0  18717-2 0  9999",
        "tle_line2": "2 34376  86.2986   0.1373 0028680 120.2874 240.1181 14.62769588882153"
      },
      "geometry": {
        "type": "Point",
        "coordinates": [
          -143.55035338491413,
          -83.8051305683855
        ]
      }
    },
    {
      "type": "Feature",
      "properties": {
        "norad_id": 34486,
        "name": "IRIDIUM 33 DEB",
        "group": "iridium-33-debris",
        "lat": 65.57721991230031,
        "lon": 177.15827071355005,
        "alt_km": 564.5464261606476,
        "timestamp": "2025-12-27T15:27:11.579280+00:00",
        "meta_object_name": "IRIDIUM 33 DEB",
        "meta_object_id": "1997-051GB",
        "meta_epoch": "2025-12-27T06:59:53.440800",
        "meta_mean_motion": 14.96479608,
        "meta_eccentricity": 0.00139048,
        "meta_inclination": 86.394,
        "meta_ra_of_asc_node": 5.3037,
        "meta_arg_of_pericenter": 70.6899,
        "meta_mean_anomaly": 306.6609,
        "meta_ephemeris_type": 0,
        "meta_classification_type": "U",
        "meta_norad_cat_id": 34486,
        "meta_element_set_no": 999,
        "meta_rev_at_epoch": 89204,
        "meta_bstar": 0.0025811731,
        "meta_mean_motion_dot": 0.00029467,
        "meta_mean_motion_ddot": 0,
        "tle_line1": "1 34486U 97051GB  25361.29159075  .00029467  00000+0  25812-2 0  9999",
        "tle_line2": "2 34486  86.3940   5.3037 0013904  70.6899 306.6609 14.96479608892048"
      },
      "geometry": {
        "type": "Point",
        "coordinates": [
          177.15827071355005,
          65.57721991230031
        ]
      }
    },
    {
      "type": "Feature",
      "properties": {
        "norad_id": 34487,
        "name": "IRIDIUM 33 DEB",
        "group": "iridium-33-debris",
        "lat": 4.383015187964929,
        "lon": -174.3210174739459,
        "alt_km": 751.7670403535876,
        "timestamp": "2025-12-27T15:27:11.579291+00:00",
        "meta_object_name": "IRIDIUM 33 DEB",
        "meta_object_id": "1997-051GC",
        "meta_epoch": "2025-12-26T00:37:21.163296",
        "meta_mean_motion": 14.43232747,
        "meta_eccentricity": 0.00332617,
        "meta_inclination": 86.3429,
        "meta_ra_of_asc_node": 6.6563,
        "meta_arg_of_pericenter": 87.1121,
        "meta_mean_anomaly": 327.0907,
        "meta_ephemeris_type": 0,
        "meta_classification_type": "U",
        "meta_norad_cat_id": 34487,
        "meta_element_set_no": 999,
        "meta_rev_at_epoch": 88440,
        "meta_bstar": 0.00018559814,
        "meta_mean_motion_dot": 6.49e-06,
        "meta_mean_motion_ddot": 0,
        "tle_line1": "1 34487U 97051GC  25360.02593939  .00000649  00000+0  18560-3 0  9995",
        "tle_line2": "2 34487  86.3429   6.6563 0033261  87.1121 327.0907 14.43232747884400"
      },
      "geometry": {
        "type": "Point",
        "coordinates": [
          -174.3210174739459,
          4.383015187964929
        ]
      }
    },
    {
      "type": "Feature",
      "properties": {
        "norad_id": 34488,
        "name": "IRIDIUM 33 DEB",
        "group": "iridium-33-debris",
        "lat": -1.0730248180863395,
        "lon": 118.48011175403289,
        "alt_km": 473.7969681229788,
        "timestamp": "2025-12-27T15:27:11.579301+00:00",
        "meta_object_name": "IRIDIUM 33 DEB",
        "meta_object_id": "1997-051GD",
        "meta_epoch": "2025-12-27T02:08:12.094368",
        "meta_mean_motion": 15.33259084,
        "meta_eccentricity": 0.00080848,
        "meta_inclination": 86.3256,
        "meta_ra_of_asc_node": 298.6875,
        "meta_arg_of_pericenter": 29.5801,
        "meta_mean_anomaly": 330.5905,
        "meta_ephemeris_type": 0,
        "meta_classification_type": "U",
        "meta_norad_cat_id": 34488,
        "meta_element_set_no": 999,
        "meta_rev_at_epoch": 89459,
        "meta_bstar": 0.0056271012,
        "meta_mean_motion_dot": 0.00185034,
        "meta_mean_motion_ddot": 0,
        "tle_line1": "1 34488U 97051GD  25361.08902887  .00185034  00000+0  56271-2 0  9991",
        "tle_line2": "2 34488  86.3256 298.6875 0008084  29.5801 330.5905 15.33259084894599"
      },
      "geometry": {
        "type": "Point",
        "coordinates": [
          118.48011175403289,
          -1.0730248180863395
        ]
      }
    },
    {
      "type": "Feature",
      "properties": {
        "norad_id": 34492,
        "name": "IRIDIUM 33 DEB",
        "group": "iridium-33-debris",
        "lat": 52.674744577896966,
        "lon": -26.756665821399817,
        "alt_km": 898.1334184995712,
        "timestamp": "2025-12-27T15:27:11.579312+00:00",
        "meta_object_name": "IRIDIUM 33 DEB",
        "meta_object_id": "1997-051GH",
        "meta_epoch": "2025-12-26T22:37:45.027264",
        "meta_mean_motion": 14.25970282,
        "meta_eccentricity": 0.0188844,
        "meta_inclination": 86.473,
        "meta_ra_of_asc_node": 328.887,
        "meta_arg_of_pericenter": 192.0084,
        "meta_mean_anomaly": 226.0259,
        "meta_ephemeris_type": 0,
        "meta_classification_type": "U",
        "meta_norad_cat_id": 34492,
        "meta_element_set_no": 999,
        "meta_rev_at_epoch": 85261,
        "meta_bstar": 0.0032813,
        "meta_mean_motion_dot": 9.462e-05,
        "meta_mean_motion_ddot": 0,
        "tle_line1": "1 34492U 97051GH  25360.94288226  .00009462  00000+0  32813-2 0  9990",
        "tle_line2": "2 34492  86.4730 328.8870 0188844 192.0084 226.0259 14.25970282852613"
      },
      "geometry": {
        "type": "Point",
        "coordinates": [
          -26.756665821399817,
          52.674744577896966
        ]
      }
    }
  ]
}